{"type":"FeatureCollection","features":[{"type":"Feature","properties":{"name":"Baltimore"},"geometry":{"type":"MultiPolygon","coordinates":[[[[-76.7113,39.37196],[-76.52968,39.37198],[-76.52983,39.24025],[-76.53297,39.23921],[-76.53544,39.24187],[-76.53575,39.24185],[-76.53595,39.24208],[-76.53583,39.24228],[-76.53875,39.2454],[-76.53555,39.25555],[-76.53489,39.25566],[-76.53452,39.25628],[-76.53482,39.25774],[-76.53469,39.25809],[-76.53501,39.2594],[-76.53643,39.26091],[-76.53691,39.26102],[-76.53911,39.26274],[-76.5398,39.26345],[-76.54001,39.26416],[-76.5397,39.26531],[-76.53983,39.26557],[-76.54007,39.26545],[-76.54007,39.26607],[-76.54022,39.26603],[-76.54086,39.26412],[-76.54084,39.26336],[-76.54057,39.26257],[-76.5398,39.26161],[-76.53661,39.25917],[-76.53627,39.25845],[-76.53666,39.2567],[-76.5404,39.25054],[-76.54379,39.25252],[-76.54396,39.25245],[-76.55273,39.25767],[-76.55299,39.26062],[-76.55406,39.26065],[-76.55414,39.26085],[-76.55449,39.26082],[-76.55443,39.25963],[-76.55566,39.25938],[-76.55555,39.25758],[-76.55581,39.25755],[-76.55618,39.26137],[-76.55656,39.26134],[-76.55665,39.2609],[-76.55706,39.26068],[-76.55763,39.26089],[-76.55792,39.26133],[-76.55907,39.26128],[-76.55885,39.25684],[-76.56019,39.25717],[-76.56047,39.26121],[-76.56114,39.26114],[-76.56094,39.25836],[-76.56113,39.25833],[-76.56222,39.25846],[-76.56238,39.26087],[-76.5625,39.26095],[-76.56283,39.26076],[-76.56269,39.25853],[-76.56306,39.25847],[-76.56294,39.25639],[-76.56352,39.25641],[-76.56368,39.25862],[-76.56447,39.25876],[-76.56459,39.25867],[-76.56446,39.25658],[-76.56476,39.25656],[-76.56502,39.26002],[-76.56583,39.26001],[-76.56612,39.25942],[-76.56636,39.25939],[-76.56701,39.25937],[-76.56827,39.25987],[-76.56832,39.25949],[-76.56865,39.25946],[-76.5687,39.25921],[-76.56885,39.2592],[-76.56891,39.26012],[-76.56938,39.25964],[-76.57136,39.26085],[-76.57181,39.26225],[-76.57154,39.26226],[-76.57149,39.26247],[-76.57166,39.26255],[-76.57193,39.26346],[-76.57129,39.26364],[-76.57115,39.26422],[-76.57146,39.26436],[-76.57175,39.26427],[-76.57139,39.26439],[-76.56998,39.26445],[-76.5699,39.26459],[-76.56878,39.26472],[-76.56888,39.26484],[-76.57202,39.26472],[-76.57201,39.2649],[-76.56893,39.26502],[-76.56884,39.2659],[-76.57151,39.26589],[-76.57182,39.26613],[-76.57174,39.26679],[-76.57272,39.26668],[-76.57273,39.2669],[-76.56969,39.26702],[-76.5696,39.26724],[-76.56888,39.26734],[-76.56899,39.268],[-76.57279,39.26788],[-76.57279,39.26847],[-76.56895,39.26869],[-76.56902,39.26924],[-76.56987,39.26939],[-76.56988,39.26959],[-76.56904,39.26967],[-76.56909,39.27063],[-76.57057,39.27063],[-76.57057,39.27077],[-76.56976,39.27089],[-76.57054,39.271],[-76.57044,39.2718],[-76.57081,39.27221],[-76.57047,39.27225],[-76.57049,39.27257],[-76.57063,39.27277],[-76.57137,39.27276],[-76.57165,39.27294],[-76.57155,39.27383],[-76.57136,39.27391],[-76.57137,39.27408],[-76.57097,39.27411],[-76.57076,39.27435],[-76.571,39.27639],[-76.57121,39.27654],[-76.57267,39.27678],[-76.5729,39.27668],[-76.57555,39.27718],[-76.57592,39.27667],[-76.5769,39.27688],[-76.57694,39.27713],[-76.57837,39.27754],[-76.57898,39.27699],[-76.57926,39.27716],[-76.57896,39.27748],[-76.57909,39.27765],[-76.5798,39.27753],[-76.58001,39.2778],[-76.58034,39.2778],[-76.58008,39.2784],[-76.58033,39.27864],[-76.58036,39.27905],[-76.57972,39.27906],[-76.5796,39.27954],[-76.58011,39.27981],[-76.57999,39.28021],[-76.58018,39.28027],[-76.5806,39.27985],[-76.58197,39.28069],[-76.58253,39.28083],[-76.58281,39.28127],[-76.58336,39.2816],[-76.58359,39.28162],[-76.58406,39.28115],[-76.58419,39.28122],[-76.58383,39.28189],[-76.58525,39.28274],[-76.58572,39.28235],[-76.58589,39.28245],[-76.58551,39.28286],[-76.58586,39.28325],[-76.58653,39.28315],[-76.58794,39.28328],[-76.58799,39.28277],[-76.58827,39.2827],[-76.58821,39.28243],[-76.58773,39.28244],[-76.5877,39.28213],[-76.58836,39.28209],[-76.58834,39.28189],[-76.58809,39.28181],[-76.58856,39.28177],[-76.58859,39.28145],[-76.58743,39.28147],[-76.58733,39.28128],[-76.58728,39.28026],[-76.58769,39.28005],[-76.58713,39.27944],[-76.58751,39.27925],[-76.58773,39.27927],[-76.58866,39.28004],[-76.58937,39.27954],[-76.59044,39.28036],[-76.59081,39.28016],[-76.59096,39.28029],[-76.59064,39.28059],[-76.59113,39.28114],[-76.59123,39.28174],[-76.59179,39.2817],[-76.59175,39.2804],[-76.59229,39.28037],[-76.59236,39.28166],[-76.59292,39.2817],[-76.59295,39.28033],[-76.59309,39.28033],[-76.59326,39.28097],[-76.59397,39.28062],[-76.59382,39.28027],[-76.59431,39.28004],[-76.59435,39.27978],[-76.59489,39.2801],[-76.59613,39.279],[-76.59657,39.27914],[-76.59678,39.27896],[-76.59908,39.27908],[-76.59962,39.27887],[-76.60068,39.27955],[-76.60075,39.28003],[-76.60029,39.2815],[-76.59886,39.28156],[-76.59879,39.28205],[-76.59789,39.28209],[-76.59787,39.28228],[-76.60287,39.28208],[-76.60293,39.28249],[-76.60328,39.28293],[-76.60409,39.28511],[-76.60436,39.28498],[-76.60366,39.28283],[-76.60445,39.28301],[-76.6048,39.28438],[-76.60524,39.28427],[-76.60505,39.28326],[-76.60601,39.28369],[-76.60637,39.28662],[-76.60675,39.28652],[-76.60656,39.28393],[-76.60735,39.28419],[-76.60764,39.28658],[-76.60808,39.28648],[-76.60788,39.28434],[-76.60861,39.28455],[-76.60881,39.28599],[-76.60966,39.28581],[-76.60994,39.28595],[-76.61071,39.28591],[-76.61074,39.28523],[-76.6111,39.28522],[-76.61121,39.2859],[-76.61145,39.28588],[-76.61189,39.28546],[-76.61166,39.28217],[-76.61117,39.28185],[-76.60776,39.28196],[-76.6076,39.28204],[-76.60761,39.2823],[-76.60729,39.28239],[-76.60713,39.28228],[-76.60707,39.28156],[-76.60657,39.28155],[-76.60521,39.28056],[-76.60518,39.27991],[-76.60591,39.27964],[-76.60589,39.27924],[-76.60431,39.27936],[-76.60583,39.27909],[-76.60585,39.27859],[-76.60394,39.27873],[-76.60392,39.27861],[-76.60532,39.27847],[-76.60534,39.27818],[-76.60561,39.27814],[-76.6057,39.2779],[-76.60551,39.27778],[-76.60331,39.27797],[-76.60383,39.27772],[-76.60379,39.2773],[-76.60463,39.27719],[-76.60456,39.27667],[-76.60432,39.27662],[-76.60435,39.27617],[-76.60123,39.27639],[-76.60424,39.27598],[-76.6044,39.27573],[-76.60435,39.27547],[-76.60348,39.27551],[-76.60334,39.27495],[-76.6017,39.2751],[-76.60192,39.27469],[-76.60136,39.27443],[-76.60081,39.27431],[-76.60058,39.27445],[-76.59942,39.27414],[-76.59978,39.27343],[-76.59902,39.27316],[-76.59851,39.2739],[-76.59707,39.27331],[-76.59675,39.27389],[-76.59643,39.274],[-76.5963,39.27427],[-76.59648,39.27456],[-76.59607,39.27474],[-76.59614,39.27497],[-76.59304,39.27624],[-76.59421,39.27568],[-76.59415,39.27539],[-76.59352,39.27558],[-76.5926,39.27527],[-76.59202,39.2762],[-76.59059,39.27597],[-76.59067,39.27568],[-76.59021,39.27554],[-76.58972,39.27578],[-76.58938,39.27574],[-76.58919,39.27558],[-76.58932,39.27497],[-76.58886,39.27479],[-76.5886,39.27518],[-76.58844,39.27513],[-76.58941,39.2732],[-76.58899,39.27283],[-76.58868,39.27327],[-76.58731,39.27285],[-76.5878,39.27161],[-76.58655,39.27128],[-76.58539,39.27326],[-76.58524,39.27318],[-76.58665,39.27072],[-76.58611,39.27026],[-76.58465,39.27258],[-76.58417,39.27242],[-76.5855,39.27011],[-76.58517,39.26989],[-76.58525,39.26967],[-76.585,39.26947],[-76.58306,39.27236],[-76.58205,39.27165],[-76.58386,39.26874],[-76.58324,39.26818],[-76.58128,39.27109],[-76.58059,39.27061],[-76.5826,39.26738],[-76.5822,39.26722],[-76.58204,39.2673],[-76.58071,39.26957],[-76.5806,39.26955],[-76.58118,39.26849],[-76.5811,39.26825],[-76.58167,39.26736],[-76.58172,39.26709],[-76.58152,39.26703],[-76.58085,39.26815],[-76.58055,39.26825],[-76.57996,39.26925],[-76.57984,39.26924],[-76.58039,39.26823],[-76.5802,39.26805],[-76.58058,39.26731],[-76.57971,39.26665],[-76.57945,39.26684],[-76.57949,39.26705],[-76.57929,39.26693],[-76.57954,39.26655],[-76.57888,39.26614],[-76.57872,39.26647],[-76.57858,39.26641],[-76.57877,39.26613],[-76.57858,39.26595],[-76.57814,39.26622],[-76.57841,39.26587],[-76.57806,39.26563],[-76.5775,39.26399],[-76.5781,39.26273],[-76.57894,39.26169],[-76.57961,39.26132],[-76.58049,39.26138],[-76.58171,39.26291],[-76.58271,39.26353],[-76.58305,39.26335],[-76.58426,39.26188],[-76.58459,39.26185],[-76.58544,39.2622],[-76.58574,39.26204],[-76.58625,39.26126],[-76.58823,39.26124],[-76.58929,39.26163],[-76.58967,39.26109],[-76.59629,39.26339],[-76.60017,39.26417],[-76.60023,39.26402],[-76.59885,39.2622],[-76.59954,39.26187],[-76.60264,39.26589],[-76.60444,39.26444],[-76.60168,39.26211],[-76.60168,39.26185],[-76.60472,39.26426],[-76.60623,39.26315],[-76.60647,39.26316],[-76.60663,39.26226],[-76.60774,39.26226],[-76.60813,39.26208],[-76.60781,39.26155],[-76.6049,39.25931],[-76.60503,39.25921],[-76.60554,39.25959],[-76.60594,39.25933],[-76.60633,39.25932],[-76.60653,39.25895],[-76.60642,39.25867],[-76.60703,39.25848],[-76.60733,39.25751],[-76.60776,39.25714],[-76.60778,39.25689],[-76.60907,39.25657],[-76.6102,39.25592],[-76.61054,39.25624],[-76.61038,39.25718],[-76.61086,39.25783],[-76.61118,39.25786],[-76.61131,39.25804],[-76.6127,39.25814],[-76.61298,39.25837],[-76.61319,39.25974],[-76.61336,39.25984],[-76.61351,39.2605],[-76.61492,39.26104],[-76.61549,39.25974],[-76.61567,39.2598],[-76.61525,39.26117],[-76.61547,39.26161],[-76.61567,39.26161],[-76.61611,39.26097],[-76.6159,39.26072],[-76.61625,39.2607],[-76.61633,39.26048],[-76.61674,39.26051],[-76.61857,39.26137],[-76.61817,39.26196],[-76.6185,39.2627],[-76.62012,39.26255],[-76.62099,39.26303],[-76.62124,39.26334],[-76.62147,39.26456],[-76.62188,39.26499],[-76.62169,39.26516],[-76.62095,39.26517],[-76.62071,39.26537],[-76.62064,39.26637],[-76.62123,39.2669],[-76.62117,39.26732],[-76.62077,39.26749],[-76.62072,39.26774],[-76.62162,39.26786],[-76.62179,39.26802],[-76.62186,39.27014],[-76.62152,39.27121],[-76.62141,39.27264],[-76.62228,39.27314],[-76.62241,39.27364],[-76.62289,39.27368],[-76.6236,39.27417],[-76.6243,39.27405],[-76.62459,39.27372],[-76.62544,39.27417],[-76.62416,39.27281],[-76.62476,39.27272],[-76.62482,39.27237],[-76.62504,39.27229],[-76.62566,39.27137],[-76.62683,39.27201],[-76.62682,39.27186],[-76.62571,39.27099],[-76.62634,39.26984],[-76.62701,39.27019],[-76.62972,39.27225],[-76.62991,39.27218],[-76.62954,39.27165],[-76.62662,39.26931],[-76.62667,39.269],[-76.62693,39.2689],[-76.63066,39.26955],[-76.63143,39.2695],[-76.6316,39.2694],[-76.63156,39.26926],[-76.62522,39.26795],[-76.62569,39.26789],[-76.62574,39.26766],[-76.62531,39.26742],[-76.62625,39.26699],[-76.62682,39.26631],[-76.62696,39.26547],[-76.62725,39.26513],[-76.62765,39.26498],[-76.62852,39.26359],[-76.62881,39.2635],[-76.6292,39.26256],[-76.62957,39.26225],[-76.62923,39.26189],[-76.62951,39.26124],[-76.63037,39.25974],[-76.63103,39.25946],[-76.63104,39.25922],[-76.63066,39.25917],[-76.63069,39.25894],[-76.62899,39.25846],[-76.62879,39.25787],[-76.62842,39.25759],[-76.62748,39.25777],[-76.62727,39.25761],[-76.62706,39.25687],[-76.62664,39.25677],[-76.62558,39.25599],[-76.62547,39.25569],[-76.62484,39.25561],[-76.62418,39.25518],[-76.62354,39.25516],[-76.62241,39.25544],[-76.61973,39.25555],[-76.61905,39.25583],[-76.61723,39.25618],[-76.61539,39.2555],[-76.61514,39.25453],[-76.61461,39.25387],[-76.61407,39.25372],[-76.61365,39.25325],[-76.61171,39.25],[-76.61179,39.24899],[-76.61197,39.24865],[-76.61161,39.24799],[-76.61273,39.24729],[-76.61304,39.24725],[-76.6134,39.24666],[-76.61472,39.24337],[-76.6152,39.24186],[-76.6153,39.24097],[-76.61585,39.24026],[-76.61618,39.24018],[-76.6163,39.2398],[-76.6187,39.2375],[-76.71116,39.27784],[-76.7113,39.37196]],[[-76.53653,39.26675],[-76.5366,39.26657],[-76.53628,39.26656],[-76.5363,39.2667],[-76.53653,39.26675]],[[-76.537,39.26681],[-76.53712,39.26669],[-76.53693,39.26661],[-76.53687,39.26674],[-76.537,39.26681]],[[-76.54007,39.26642],[-76.53994,39.2663],[-76.53909,39.26669],[-76.53736,39.26665],[-76.53726,39.26677],[-76.53941,39.26694],[-76.54007,39.26642]],[[-76.62356,39.27434],[-76.62342,39.27422],[-76.62325,39.2745],[-76.62345,39.27458],[-76.62356,39.27434]]],[[[-76.5793,39.20696],[-76.57924,39.20744],[-76.57837,39.20834],[-76.57665,39.20804],[-76.57578,39.20809],[-76.57578,39.20792],[-76.5756,39.20786],[-76.57441,39.20806],[-76.57229,39.2096],[-76.57152,39.21069],[-76.57154,39.21115],[-76.5722,39.21183],[-76.57285,39.21281],[-76.57283,39.21335],[-76.5742,39.21358],[-76.57417,39.2137],[-76.5728,39.21354],[-76.57275,39.21395],[-76.57312,39.21423],[-76.57267,39.21439],[-76.57208,39.21621],[-76.57207,39.21669],[-76.57225,39.21713],[-76.5736,39.218],[-76.57357,39.21829],[-76.57333,39.21855],[-76.57246,39.21827],[-76.56946,39.21657],[-76.56863,39.21598],[-76.56783,39.21508],[-76.56735,39.21486],[-76.56523,39.21487],[-76.56343,39.21522],[-76.56392,39.21489],[-76.563,39.21442],[-76.56192,39.21466],[-76.56062,39.21526],[-76.56031,39.21519],[-76.56019,39.21557],[-76.56039,39.21575],[-76.56024,39.21585],[-76.55963,39.21589],[-76.55997,39.21574],[-76.55999,39.2156],[-76.55977,39.21529],[-76.55922,39.21516],[-76.55861,39.21548],[-76.55863,39.21603],[-76.55828,39.2151],[-76.55709,39.21511],[-76.55631,39.21539],[-76.55547,39.21671],[-76.55345,39.21706],[-76.55286,39.21693],[-76.55093,39.2175],[-76.55049,39.21744],[-76.54949,39.21682],[-76.54906,39.21384],[-76.54843,39.21342],[-76.54854,39.21327],[-76.54935,39.21343],[-76.54963,39.21331],[-76.54999,39.21301],[-76.55045,39.21208],[-76.54977,39.21103],[-76.5488,39.21041],[-76.54776,39.2101],[-76.54578,39.20989],[-76.54229,39.21223],[-76.53965,39.21377],[-76.53945,39.21357],[-76.54127,39.21239],[-76.54113,39.2118],[-76.54163,39.21179],[-76.54175,39.21083],[-76.5409,39.21001],[-76.5402,39.21004],[-76.53936,39.21045],[-76.53845,39.21048],[-76.53703,39.21095],[-76.5353,39.21197],[-76.53426,39.2129],[-76.53389,39.21299],[-76.53352,39.21268],[-76.53387,39.21207],[-76.53284,39.21114],[-76.53285,39.2108],[-76.53318,39.2106],[-76.53498,39.21066],[-76.53519,39.21046],[-76.53288,39.2103],[-76.53235,39.20999],[-76.53225,39.20956],[-76.53303,39.20825],[-76.53304,39.20791],[-76.5328,39.2078],[-76.54973,39.19724],[-76.57888,39.20659],[-76.5793,39.20696]]],[[[-76.61783,39.23712],[-76.6169,39.23804],[-76.61579,39.23877],[-76.61536,39.2395],[-76.61433,39.24045],[-76.61374,39.24148],[-76.61313,39.24142],[-76.61285,39.24154],[-76.61222,39.24315],[-76.61221,39.24362],[-76.612,39.24388],[-76.61176,39.24607],[-76.61138,39.24609],[-76.6114,39.24644],[-76.61081,39.24675],[-76.60988,39.24628],[-76.6094,39.24658],[-76.60889,39.24643],[-76.60883,39.24625],[-76.60906,39.24596],[-76.60901,39.24559],[-76.60864,39.24517],[-76.60814,39.24363],[-76.60787,39.24326],[-76.60759,39.24331],[-76.60704,39.2439],[-76.60639,39.24411],[-76.6058,39.244],[-76.60546,39.24352],[-76.60498,39.24321],[-76.60473,39.24332],[-76.60481,39.24359],[-76.60369,39.24379],[-76.60327,39.24378],[-76.60307,39.2436],[-76.60185,39.24358],[-76.60143,39.24371],[-76.60116,39.24405],[-76.60152,39.24467],[-76.60093,39.24539],[-76.60051,39.24626],[-76.60006,39.24659],[-76.59912,39.24787],[-76.59836,39.24822],[-76.59786,39.24793],[-76.59828,39.24779],[-76.59854,39.24726],[-76.59858,39.24666],[-76.59835,39.24637],[-76.59779,39.24652],[-76.5975,39.24639],[-76.59872,39.24514],[-76.59873,39.24488],[-76.5985,39.24464],[-76.59767,39.24448],[-76.59692,39.24458],[-76.59622,39.24413],[-76.59565,39.24419],[-76.59542,39.24427],[-76.59533,39.24467],[-76.5948,39.24525],[-76.59511,39.2446],[-76.59492,39.24392],[-76.59459,39.24483],[-76.59395,39.24492],[-76.5933,39.24523],[-76.59304,39.24499],[-76.59261,39.24492],[-76.59254,39.24425],[-76.59193,39.24355],[-76.59168,39.24369],[-76.59188,39.24414],[-76.59131,39.24532],[-76.59163,39.24605],[-76.59202,39.24615],[-76.59237,39.24648],[-76.59234,39.24685],[-76.59173,39.24755],[-76.59242,39.24799],[-76.59284,39.24864],[-76.59295,39.24942],[-76.59253,39.25004],[-76.59235,39.24998],[-76.59225,39.25019],[-76.59137,39.25021],[-76.59102,39.25043],[-76.59038,39.25021],[-76.58964,39.25018],[-76.58744,39.25049],[-76.58713,39.25074],[-76.58665,39.25033],[-76.58654,39.24925],[-76.58679,39.24861],[-76.58695,39.24745],[-76.58679,39.24706],[-76.58699,39.24641],[-76.58673,39.24612],[-76.58562,39.24567],[-76.58538,39.24632],[-76.58553,39.2473],[-76.5852,39.24943],[-76.58527,39.24982],[-76.58486,39.24987],[-76.58472,39.25118],[-76.58449,39.25138],[-76.58421,39.25114],[-76.58437,39.2497],[-76.58461,39.2494],[-76.58412,39.24932],[-76.58394,39.24991],[-76.58406,39.25033],[-76.58376,39.25044],[-76.58369,39.24948],[-76.58392,39.24946],[-76.58402,39.24919],[-76.58366,39.24889],[-76.58359,39.24829],[-76.58335,39.24819],[-76.58322,39.24948],[-76.58293,39.24959],[-76.58132,39.25161],[-76.58122,39.25152],[-76.58254,39.24985],[-76.58249,39.24953],[-76.58216,39.24956],[-76.5823,39.24928],[-76.58222,39.24917],[-76.58191,39.24922],[-76.58052,39.25096],[-76.58018,39.25129],[-76.58008,39.25125],[-76.5818,39.2491],[-76.58174,39.24894],[-76.58081,39.24911],[-76.58043,39.24956],[-76.58004,39.24938],[-76.57979,39.24943],[-76.57819,39.25143],[-76.57811,39.25125],[-76.57874,39.25047],[-76.57861,39.25031],[-76.58108,39.2469],[-76.58041,39.24662],[-76.57783,39.24982],[-76.5777,39.24974],[-76.57853,39.24855],[-76.57763,39.24814],[-76.57668,39.24928],[-76.57645,39.24916],[-76.57651,39.24896],[-76.57717,39.24799],[-76.57642,39.24785],[-76.57517,39.24718],[-76.57522,39.24697],[-76.57481,39.2468],[-76.57388,39.24698],[-76.57395,39.24637],[-76.57333,39.24605],[-76.57328,39.24586],[-76.57178,39.24764],[-76.57166,39.24758],[-76.57306,39.24578],[-76.57244,39.24543],[-76.57115,39.24702],[-76.57231,39.24534],[-76.57183,39.2452],[-76.57177,39.2449],[-76.57151,39.24499],[-76.57137,39.24485],[-76.57021,39.24574],[-76.57009,39.24564],[-76.5713,39.24469],[-76.57004,39.24354],[-76.57095,39.24338],[-76.57081,39.24302],[-76.57122,39.24293],[-76.57117,39.24252],[-76.56965,39.24282],[-76.56905,39.2415],[-76.56965,39.24099],[-76.56948,39.24075],[-76.56717,39.24208],[-76.56778,39.24274],[-76.56746,39.24287],[-76.56615,39.24152],[-76.56733,39.24078],[-76.56736,39.24057],[-76.56773,39.24027],[-76.56767,39.24008],[-76.5658,39.24107],[-76.56526,39.24078],[-76.56463,39.24013],[-76.56571,39.23937],[-76.56545,39.23913],[-76.56488,39.23917],[-76.56432,39.23897],[-76.564,39.23821],[-76.56335,39.23742],[-76.56362,39.23716],[-76.56211,39.23515],[-76.56012,39.23547],[-76.5588,39.23412],[-76.55858,39.23341],[-76.55895,39.23217],[-76.56027,39.2319],[-76.5601,39.23105],[-76.56262,39.23051],[-76.56286,39.2303],[-76.56297,39.23007],[-76.5622,39.22747],[-76.56412,39.22504],[-76.56407,39.22467],[-76.56434,39.22452],[-76.566,39.22517],[-76.56715,39.2262],[-76.5675,39.22627],[-76.56766,39.22615],[-76.56781,39.22653],[-76.5681,39.22663],[-76.56842,39.22648],[-76.56862,39.22691],[-76.56956,39.22723],[-76.57072,39.22737],[-76.57248,39.22712],[-76.57438,39.22626],[-76.57675,39.22553],[-76.579,39.22683],[-76.57909,39.22715],[-76.57878,39.22767],[-76.5792,39.22889],[-76.57915,39.22967],[-76.58013,39.23107],[-76.58086,39.23126],[-76.58162,39.23173],[-76.58207,39.2316],[-76.58216,39.23099],[-76.58103,39.23063],[-76.58023,39.22965],[-76.58076,39.22957],[-76.58077,39.2293],[-76.58127,39.22939],[-76.58121,39.22914],[-76.5807,39.22904],[-76.58058,39.22871],[-76.58033,39.22867],[-76.5803,39.22836],[-76.58062,39.22822],[-76.58045,39.22788],[-76.58056,39.22744],[-76.58126,39.22727],[-76.58155,39.22703],[-76.5816,39.22669],[-76.58001,39.22535],[-76.58018,39.22517],[-76.57996,39.2234],[-76.57681,39.22328],[-76.57683,39.22299],[-76.5799,39.22303],[-76.58,39.22252],[-76.57941,39.22237],[-76.57935,39.22179],[-76.57624,39.22155],[-76.57626,39.2214],[-76.57943,39.22159],[-76.57937,39.22131],[-76.57767,39.22125],[-76.57799,39.22102],[-76.57901,39.22099],[-76.57901,39.22079],[-76.57871,39.22066],[-76.57869,39.21894],[-76.57976,39.21879],[-76.5793,39.21745],[-76.57855,39.21613],[-76.57863,39.21568],[-76.57918,39.21582],[-76.57964,39.21618],[-76.58025,39.21607],[-76.5807,39.21627],[-76.5809,39.21658],[-76.58121,39.21662],[-76.58244,39.21603],[-76.58236,39.21588],[-76.58157,39.21591],[-76.58157,39.21581],[-76.58427,39.21575],[-76.58483,39.21518],[-76.58681,39.21493],[-76.58735,39.21424],[-76.58815,39.21421],[-76.58853,39.21405],[-76.58912,39.21325],[-76.61162,39.2344],[-76.61783,39.23712]]],[[[-76.58861,39.21278],[-76.58842,39.21286],[-76.58822,39.21345],[-76.58781,39.2137],[-76.58752,39.21348],[-76.586,39.2137],[-76.58528,39.21363],[-76.58317,39.21439],[-76.58121,39.2142],[-76.58084,39.21336],[-76.58119,39.21211],[-76.58092,39.21193],[-76.58131,39.21193],[-76.58181,39.21118],[-76.5816,39.21083],[-76.58203,39.21019],[-76.58231,39.2099],[-76.58292,39.20992],[-76.58342,39.20925],[-76.58349,39.20881],[-76.58346,39.20852],[-76.58312,39.20838],[-76.58301,39.20793],[-76.58167,39.20779],[-76.5824,39.20772],[-76.58368,39.20813],[-76.58861,39.21278]]]]}}]}