{"type":"FeatureCollection","features":[{"type":"Feature","geometry":{"type":"Point","coordinates":[-76.56668,39.28646]},"properties":{"name":"Southeast Anchor","address":"3601 Eastern Ave","nb":"Brewers Hill","hours":"Normal business hours varies by site","url":"https://health.baltimorecity.gov/coderedinfo"}},{"type":"Feature","geometry":{"type":"Point","coordinates":[-76.62247,39.25064]},"properties":{"name":"Cherry Hill","address":"606 Cherry Hill Rd","nb":"Cherry Hill","hours":"Normal business hours varies by site","url":"https://health.baltimorecity.gov/coderedinfo"}},{"type":"Feature","geometry":{"type":"Point","coordinates":[-76.58754,39.30975]},"properties":{"name":"Oliver Senior Center","address":"1700 N Gay St","nb":"Broadway East","hours":"Weekdays 9:00 AM to 7:00 PM","url":"https://health.baltimorecity.gov/coderedinfo"}},{"type":"Feature","geometry":{"type":"Point","coordinates":[-76.64384,39.30659]},"properties":{"name":"Sandtown Winchester Senior Center","address":"1601 Baker St","nb":"Sandtown-Winchester","hours":"Weekdays 9:00 AM to 7:00 PM","url":"https://health.baltimorecity.gov/coderedinfo"}},{"type":"Feature","geometry":{"type":"Point","coordinates":[-76.57585,39.28307]},"properties":{"name":"Hatton Senior Center","address":"2825 Fait Ave","nb":"Canton","hours":"Weekdays 9:00 AM to 7:00 PM","url":"https://health.baltimorecity.gov/coderedinfo"}},{"type":"Feature","geometry":{"type":"Point","coordinates":[-76.66937,39.33997]},"properties":{"name":"Zeta Center for Health/Active Aging","address":"4501 Reisterstown Rd","nb":"Central Park Heights","hours":"Weekdays 9:00 AM to 7:00 PM","url":"https://health.baltimorecity.gov/coderedinfo"}},{"type":"Feature","geometry":{"type":"Point","coordinates":[-76.59559,39.28635]},"properties":{"name":"Beans & Bread","address":"400 S Bond St","nb":"Fells Point","hours":"10:00am-4:00pm Monday-Friday (Closed 7/4/26)","url":"https://health.baltimorecity.gov/coderedinfo"}},{"type":"Feature","geometry":{"type":"Point","coordinates":[-76.59913,39.22851]},"properties":{"name":"Brooklyn Homes","address":"4140 10th St","nb":"Brooklyn","hours":"Monday-Friday 8:00 AM to 4:00 PM","url":"https://health.baltimorecity.gov/coderedinfo"}},{"type":"Feature","geometry":{"type":"Point","coordinates":[-76.5728,39.28029]},"properties":{"name":"Canton","address":"1030 S Ellwood Ave","nb":"Canton","hours":"Normal business hours varies by site","url":"https://health.baltimorecity.gov/coderedinfo"}},{"type":"Feature","geometry":{"type":"Point","coordinates":[-76.6171,39.29451]},"properties":{"name":"Central Library","address":"400 Cathedral St","nb":"Downtown","hours":"Normal business hours varies by site","url":"https://health.baltimorecity.gov/coderedinfo"}},{"type":"Feature","geometry":{"type":"Point","coordinates":[-76.62954,39.24824]},"properties":{"name":"Cherry Hill Homes","address":"2700 Spelman Rd","nb":"Cherry Hill","hours":"Monday-Friday 8:00 AM to 4:00 PM","url":"https://health.baltimorecity.gov/coderedinfo"}},{"type":"Feature","geometry":{"type":"Point","coordinates":[-76.68926,39.2938]},"properties":{"name":"Edmondson Avenue","address":"4330 Edmondson Ave","nb":"Rognel Heights","hours":"Normal business hours varies by site","url":"https://health.baltimorecity.gov/coderedinfo"}},{"type":"Feature","geometry":{"type":"Point","coordinates":[-76.61873,39.31505]},"properties":{"name":"Franciscan Center","address":"101 W 23rd St","nb":"Old Goucher","hours":"10:00am-2:00pm Monday-Friday (Closed 7/4/26)","url":"https://health.baltimorecity.gov/coderedinfo"}},{"type":"Feature","geometry":{"type":"Point","coordinates":[-76.63509,39.33229]},"properties":{"name":"Hampden","address":"3641 Falls Rd","nb":"Hampden","hours":"Normal business hours varies by site","url":"https://health.baltimorecity.gov/coderedinfo"}},{"type":"Feature","geometry":{"type":"Point","coordinates":[-76.55818,39.35551]},"properties":{"name":"Harbel (Resiliency Hub)","address":"5807 Harford Rd","nb":"Hamilton","hours":"Monday-Friday 9:00AM - 6:30 PM","url":"https://health.baltimorecity.gov/coderedinfo"}},{"type":"Feature","geometry":{"type":"Point","coordinates":[-76.56645,39.34683]},"properties":{"name":"Harford Senior Center","address":"4920 Harford Rd","nb":"Lauraville","hours":"Weekdays 9:00 AM to 7:00 PM","url":"https://health.baltimorecity.gov/coderedinfo"}},{"type":"Feature","geometry":{"type":"Point","coordinates":[-76.61181,39.27495]},"properties":{"name":"Light Street","address":"1251 Light St","nb":"Federal Hill","hours":"Normal business hours varies by site","url":"https://health.baltimorecity.gov/coderedinfo"}},{"type":"Feature","geometry":{"type":"Point","coordinates":[-76.61001,39.31793]},"properties":{"name":"Manna House","address":"435 E 25th St","nb":"Barclay","hours":"10:00am-2:00pm Monday-Friday (Closed 7/4/26)","url":"https://health.baltimorecity.gov/coderedinfo"}},{"type":"Feature","geometry":{"type":"Point","coordinates":[-76.61644,39.29491]},"properties":{"name":"My Sister's Place Women's Center","address":"17 W Franklin St","nb":"Downtown","hours":"10:00am-5:00pm Monday - Sunday","url":"https://health.baltimorecity.gov/coderedinfo"}},{"type":"Feature","geometry":{"type":"Point","coordinates":[-76.59933,39.29444]},"properties":{"name":"Orleans Street","address":"1303 Orleans St","nb":"Dunbar-Broadway","hours":"Normal business hours varies by site","url":"https://health.baltimorecity.gov/coderedinfo"}},{"type":"Feature","geometry":{"type":"Point","coordinates":[-76.57661,39.29484]},"properties":{"name":"Patterson Park","address":"158 N Linwood Ave","nb":"McElderry Park","hours":"Normal business hours varies by site","url":"https://health.baltimorecity.gov/coderedinfo"}},{"type":"Feature","geometry":{"type":"Point","coordinates":[-76.6419,39.30986]},"properties":{"name":"Pennsylvania Avenue","address":"1531 W North Ave","nb":"Druid Heights","hours":"Normal business hours varies by site","url":"https://health.baltimorecity.gov/coderedinfo"}},{"type":"Feature","geometry":{"type":"Point","coordinates":[-76.63505,39.35596]},"properties":{"name":"Roland Park","address":"5108 Roland Ave","nb":"Roland Park","hours":"Normal business hours varies by site","url":"https://health.baltimorecity.gov/coderedinfo"}},{"type":"Feature","geometry":{"type":"Point","coordinates":[-76.69567,39.33013]},"properties":{"name":"ShopRite of Howard Park","address":"4601 Liberty Heights","nb":"Howard Park","hours":"Monday-Sunday 6:00 AM to 10:00 PM","url":"https://health.baltimorecity.gov/coderedinfo"}},{"type":"Feature","geometry":{"type":"Point","coordinates":[-76.67168,39.3087]},"properties":{"name":"Walbrook","address":"3203 W North Ave","nb":"Rosemont","hours":"Normal business hours varies by site","url":"https://health.baltimorecity.gov/coderedinfo"}},{"type":"Feature","geometry":{"type":"Point","coordinates":[-76.61061,39.32861]},"properties":{"name":"Waverly","address":"400 E 33rd St","nb":"Oakenshawe","hours":"Normal business hours varies by site","url":"https://health.baltimorecity.gov/coderedinfo"}},{"type":"Feature","geometry":{"type":"Point","coordinates":[-76.61059,39.29729]},"properties":{"name":"Weinberg Housing & Resource Center","address":"620 Fallsway","nb":"Penn-Fallsway","hours":"10:00am-5:00pm Monday - Sunday","url":"https://health.baltimorecity.gov/coderedinfo"}},{"type":"Feature","geometry":{"type":"Point","coordinates":[-76.61002,39.29149]},"properties":{"name":"Zion Lutheran Church","address":"400 E Lexington St","nb":"Downtown","hours":"Tues-Thurs, 11:00am-5:00pm May 15-Sept 15","url":"https://health.baltimorecity.gov/coderedinfo"}},{"type":"Feature","geometry":{"type":"Point","coordinates":[-76.60676,39.23789]},"properties":{"name":"Brooklyn","address":"300 E Patapsco Ave","nb":"Brooklyn","hours":"Normal business hours varies by site","url":"https://health.baltimorecity.gov/coderedinfo"}}]}