{"type":"FeatureCollection","features":[{"type":"Feature","properties":{"grade":"A"},"geometry":{"type":"MultiPolygon","coordinates":[[[[-76.61036,39.34638],[-76.61395,39.34766],[-76.62244,39.34553],[-76.63468,39.34191],[-76.62939,39.33941],[-76.62791,39.33301],[-76.62562,39.33546],[-76.61027,39.32766],[-76.61036,39.34638]]],[[[-76.61096,39.35669],[-76.61517,39.35732],[-76.61581,39.36399],[-76.62363,39.37111],[-76.62864,39.36953],[-76.62927,39.36031],[-76.62411,39.35591],[-76.62797,39.35252],[-76.6253,39.3477],[-76.62303,39.35324],[-76.61096,39.35669]]]]}},{"type":"Feature","properties":{"grade":"A"},"geometry":{"type":"MultiPolygon","coordinates":[[[[-76.58876,39.33125],[-76.60528,39.33541],[-76.60543,39.32832],[-76.59947,39.32809],[-76.59428,39.32608],[-76.58435,39.3269],[-76.58876,39.33125]]]]}},{"type":"Feature","properties":{"grade":"A"},"geometry":{"type":"MultiPolygon","coordinates":[[[[-76.59573,39.379],[-76.59794,39.38668],[-76.61441,39.37653],[-76.62166,39.37363],[-76.61388,39.37132],[-76.60865,39.37859],[-76.59573,39.379]]]]}},{"type":"Feature","properties":{"grade":"A"},"geometry":{"type":"MultiPolygon","coordinates":[[[[-76.71163,39.37224],[-76.70602,39.37368],[-76.70987,39.38056],[-76.71454,39.38068],[-76.71386,39.37775],[-76.71163,39.37224]]]]}},{"type":"Feature","properties":{"grade":"A"},"geometry":{"type":"MultiPolygon","coordinates":[[[[-76.69403,39.29309],[-76.69666,39.29945],[-76.70174,39.2986],[-76.70713,39.2919],[-76.70654,39.28492],[-76.6994,39.28513],[-76.69892,39.29122],[-76.69403,39.29309]]]]}},{"type":"Feature","properties":{"grade":"A"},"geometry":{"type":"MultiPolygon","coordinates":[[[[-76.58876,39.33125],[-76.58859,39.33798],[-76.58285,39.35623],[-76.59161,39.35457],[-76.59962,39.33973],[-76.60362,39.33567],[-76.59808,39.33117],[-76.58876,39.33125]]]]}},{"type":"Feature","properties":{"grade":"B"},"geometry":{"type":"MultiPolygon","coordinates":[[[[-76.62411,39.35591],[-76.63034,39.35549],[-76.64006,39.35795],[-76.64235,39.35961],[-76.64332,39.36053],[-76.64335,39.36185],[-76.64288,39.35316],[-76.63909,39.35165],[-76.63806,39.34855],[-76.63945,39.347],[-76.63722,39.34418],[-76.62794,39.3459],[-76.63011,39.35312],[-76.62411,39.35591]]]]}},{"type":"Feature","properties":{"grade":"B"},"geometry":{"type":"MultiPolygon","coordinates":[[[[-76.55349,39.38306],[-76.55782,39.3741],[-76.55897,39.37157],[-76.55986,39.36734],[-76.56729,39.36932],[-76.57003,39.3631],[-76.57259,39.35735],[-76.57003,39.35298],[-76.57365,39.34853],[-76.57869,39.3484],[-76.58064,39.34826],[-76.58046,39.34286],[-76.57684,39.33848],[-76.56932,39.33075],[-76.56145,39.32473],[-76.55584,39.32586],[-76.54831,39.32543],[-76.53854,39.33299],[-76.52988,39.34231],[-76.5228,39.34518],[-76.51776,39.35188],[-76.52165,39.36686],[-76.53952,39.36761],[-76.53908,39.37827],[-76.55349,39.38306]]]]}},{"type":"Feature","properties":{"grade":"B"},"geometry":{"type":"MultiPolygon","coordinates":[[[[-76.59443,39.32569],[-76.59853,39.32152],[-76.59329,39.31853],[-76.58988,39.32182],[-76.58804,39.32295],[-76.58558,39.32524],[-76.59352,39.3252],[-76.59443,39.32569]]],[[[-76.5796,39.33195],[-76.5837,39.32956],[-76.57737,39.3225],[-76.57229,39.31485],[-76.56424,39.31791],[-76.56347,39.32464],[-76.56881,39.3254],[-76.5796,39.33195]]]]}},{"type":"Feature","properties":{"grade":"B"},"geometry":{"type":"MultiPolygon","coordinates":[[[[-76.5224,39.25478],[-76.52094,39.25171],[-76.51414,39.25189],[-76.5188,39.26167],[-76.51944,39.26255],[-76.52125,39.26351],[-76.52239,39.26379],[-76.52448,39.26381],[-76.52624,39.26371],[-76.5224,39.25478]]]]}},{"type":"Feature","properties":{"grade":"B"},"geometry":{"type":"MultiPolygon","coordinates":[[[[-76.70713,39.2919],[-76.71561,39.29062],[-76.71753,39.28478],[-76.7261,39.2814],[-76.75554,39.27591],[-76.74862,39.2561],[-76.74204,39.25685],[-76.73257,39.25966],[-76.73206,39.27143],[-76.7261,39.26963],[-76.7227,39.26954],[-76.71793,39.27134],[-76.71152,39.27235],[-76.70738,39.2792],[-76.70568,39.28236],[-76.70713,39.2919]]]]}},{"type":"Feature","properties":{"grade":"B"},"geometry":{"type":"MultiPolygon","coordinates":[[[[-76.71896,39.37001],[-76.72689,39.37215],[-76.73437,39.36929],[-76.73803,39.36515],[-76.73716,39.36282],[-76.73234,39.362],[-76.72518,39.36352],[-76.7217,39.36573],[-76.71896,39.37001]]]]}},{"type":"Feature","properties":{"grade":"B"},"geometry":{"type":"MultiPolygon","coordinates":[[[[-76.61232,39.32586],[-76.61214,39.32899],[-76.61806,39.33288],[-76.61741,39.32375],[-76.61782,39.32329],[-76.61863,39.32304],[-76.6194,39.32312],[-76.61984,39.32336],[-76.62027,39.32328],[-76.62029,39.32246],[-76.61997,39.32215],[-76.61577,39.32238],[-76.61595,39.3256],[-76.61232,39.32586]]]]}},{"type":"Feature","properties":{"grade":"B"},"geometry":{"type":"MultiPolygon","coordinates":[[[[-76.59404,39.39473],[-76.59931,39.39861],[-76.60256,39.39051],[-76.59928,39.39256],[-76.59404,39.39473]]],[[[-76.59272,39.40255],[-76.59539,39.40293],[-76.59998,39.40278],[-76.60113,39.40252],[-76.60202,39.40181],[-76.60123,39.40109],[-76.5988,39.40125],[-76.59697,39.40109],[-76.59414,39.40107],[-76.59252,39.4009],[-76.59036,39.40018],[-76.58925,39.40117],[-76.59272,39.40255]]],[[[-76.60464,39.40283],[-76.6092,39.40467],[-76.61384,39.4068],[-76.61635,39.40365],[-76.61469,39.40289],[-76.61166,39.40193],[-76.61186,39.40044],[-76.61325,39.40048],[-76.61352,39.40014],[-76.61365,39.39922],[-76.61424,39.39823],[-76.61502,39.39746],[-76.61437,39.3969],[-76.61084,39.39674],[-76.60547,39.39748],[-76.60464,39.40283]]]]}},{"type":"Feature","properties":{"grade":"B"},"geometry":{"type":"MultiPolygon","coordinates":[[[[-76.69403,39.29309],[-76.67695,39.28834],[-76.67594,39.2978],[-76.68065,39.2964],[-76.68398,39.29894],[-76.69403,39.29309]]]]}},{"type":"Feature","properties":{"grade":"B"},"geometry":{"type":"MultiPolygon","coordinates":[[[[-76.63532,39.40312],[-76.64534,39.40356],[-76.65179,39.40516],[-76.65152,39.402],[-76.65507,39.40023],[-76.64979,39.39855],[-76.64629,39.39456],[-76.64344,39.39576],[-76.63674,39.39839],[-76.63532,39.40312]]]]}},{"type":"Feature","properties":{"grade":"B"},"geometry":{"type":"MultiPolygon","coordinates":[[[[-76.67058,39.3569],[-76.65749,39.35846],[-76.65254,39.36231],[-76.65574,39.36233],[-76.6568,39.36393],[-76.65371,39.36718],[-76.66364,39.36663],[-76.66985,39.36609],[-76.67185,39.36295],[-76.67058,39.3569]]]]}},{"type":"Feature","properties":{"grade":"B"},"geometry":{"type":"MultiPolygon","coordinates":[[[[-76.66603,39.37581],[-76.66649,39.38029],[-76.67209,39.38009],[-76.67543,39.37885],[-76.67713,39.37498],[-76.6771,39.37498],[-76.67065,39.37546],[-76.66603,39.37581]]]]}},{"type":"Feature","properties":{"grade":"B"},"geometry":{"type":"MultiPolygon","coordinates":[[[[-76.72906,39.35626],[-76.7374,39.35325],[-76.73936,39.35278],[-76.74059,39.35205],[-76.74037,39.35104],[-76.74241,39.348],[-76.73455,39.34523],[-76.73373,39.34657],[-76.73194,39.3465],[-76.73108,39.34702],[-76.72988,39.34708],[-76.72941,39.34745],[-76.73123,39.34929],[-76.72582,39.35304],[-76.72906,39.35626]]]]}},{"type":"Feature","properties":{"grade":"B"},"geometry":{"type":"MultiPolygon","coordinates":[[[[-76.71552,39.31649],[-76.72313,39.31219],[-76.72839,39.30918],[-76.72411,39.30584],[-76.71625,39.30578],[-76.70533,39.30441],[-76.71296,39.3137],[-76.71552,39.31649]]]]}},{"type":"Feature","properties":{"grade":"B"},"geometry":{"type":"MultiPolygon","coordinates":[[[[-76.65529,39.19961],[-76.65362,39.20228],[-76.65277,39.20428],[-76.6529,39.20537],[-76.65636,39.20542],[-76.66073,39.20562],[-76.66401,39.20585],[-76.66652,39.20607],[-76.66667,39.20407],[-76.66698,39.20228],[-76.66759,39.19989],[-76.66494,39.19938],[-76.66137,39.19879],[-76.65626,39.19797],[-76.65529,39.19961]]]]}},{"type":"Feature","properties":{"grade":"B"},"geometry":{"type":"MultiPolygon","coordinates":[[[[-76.67313,39.36391],[-76.67728,39.36994],[-76.68811,39.36503],[-76.69228,39.36534],[-76.70036,39.36527],[-76.70544,39.36566],[-76.70478,39.35304],[-76.68033,39.34625],[-76.67515,39.35548],[-76.67185,39.36295],[-76.67313,39.36391]]]]}},{"type":"Feature","properties":{"grade":"B"},"geometry":{"type":"MultiPolygon","coordinates":[[[[-76.66887,39.31841],[-76.66631,39.32207],[-76.6686,39.32902],[-76.68915,39.34331],[-76.70511,39.34019],[-76.71247,39.3321],[-76.71656,39.33324],[-76.71503,39.327],[-76.72108,39.32561],[-76.7256,39.32287],[-76.73269,39.32224],[-76.72593,39.31654],[-76.7165,39.32228],[-76.71051,39.32198],[-76.69558,39.32835],[-76.69825,39.31933],[-76.69465,39.31633],[-76.69149,39.31692],[-76.68905,39.31418],[-76.68522,39.31548],[-76.67747,39.31708],[-76.67263,39.31834],[-76.67029,39.31844],[-76.66887,39.31841]]]]}},{"type":"Feature","properties":{"grade":"B"},"geometry":{"type":"MultiPolygon","coordinates":[[[[-76.66036,39.31042],[-76.6676,39.31461],[-76.67109,39.31822],[-76.67316,39.31817],[-76.67985,39.31713],[-76.68605,39.31543],[-76.68858,39.31335],[-76.68616,39.31227],[-76.6812,39.31026],[-76.67571,39.30929],[-76.66036,39.31042]]]]}},{"type":"Feature","properties":{"grade":"B"},"geometry":{"type":"MultiPolygon","coordinates":[[[[-76.64525,39.31642],[-76.65075,39.32009],[-76.65694,39.32134],[-76.6605,39.31901],[-76.65495,39.31874],[-76.65255,39.31275],[-76.65719,39.31137],[-76.64883,39.31165],[-76.64525,39.31642]]]]}},{"type":"Feature","properties":{"grade":"B"},"geometry":{"type":"MultiPolygon","coordinates":[[[[-76.64066,39.34345],[-76.6439,39.34391],[-76.64531,39.3414],[-76.64564,39.34052],[-76.64539,39.33958],[-76.6439,39.33783],[-76.64381,39.33683],[-76.64191,39.33556],[-76.63725,39.33758],[-76.63988,39.34096],[-76.64066,39.34345]]]]}},{"type":"Feature","properties":{"grade":"B"},"geometry":{"type":"MultiPolygon","coordinates":[[[[-76.61036,39.34638],[-76.61069,39.35202],[-76.61582,39.35164],[-76.61565,39.34767],[-76.61395,39.34766],[-76.61323,39.3475],[-76.61205,39.34661],[-76.61132,39.34633],[-76.61036,39.34638]]],[[[-76.59818,39.35428],[-76.60675,39.36305],[-76.6039,39.37264],[-76.61388,39.37132],[-76.61581,39.36399],[-76.61517,39.35732],[-76.61096,39.35669],[-76.60875,39.34536],[-76.60626,39.32679],[-76.60316,39.3284],[-76.60565,39.3352],[-76.60249,39.33716],[-76.59818,39.35428]]]]}},{"type":"Feature","properties":{"grade":"B"},"geometry":{"type":"MultiPolygon","coordinates":[[[[-76.60944,39.37575],[-76.60995,39.3742],[-76.60242,39.3731],[-76.59521,39.37212],[-76.59557,39.37681],[-76.59757,39.37686],[-76.60037,39.37719],[-76.60865,39.37859],[-76.60944,39.37575]]]]}},{"type":"Feature","properties":{"grade":"C"},"geometry":{"type":"MultiPolygon","coordinates":[[[[-76.57227,39.29556],[-76.57231,39.29593],[-76.57277,39.30233],[-76.57755,39.30208],[-76.57769,39.30387],[-76.58568,39.30378],[-76.58478,39.292],[-76.57641,39.29226],[-76.57619,39.28991],[-76.57345,39.29002],[-76.57323,39.28635],[-76.57149,39.28652],[-76.57227,39.29556]]]]}},{"type":"Feature","properties":{"grade":"C"},"geometry":{"type":"MultiPolygon","coordinates":[[[[-76.59521,39.37212],[-76.59021,39.37308],[-76.58505,39.37514],[-76.59118,39.38018],[-76.59573,39.379],[-76.59521,39.37212]]]]}},{"type":"Feature","properties":{"grade":"C"},"geometry":{"type":"MultiPolygon","coordinates":[[[[-76.63587,39.26496],[-76.64147,39.26923],[-76.647,39.2707],[-76.65287,39.2719],[-76.66583,39.26438],[-76.65813,39.26479],[-76.65066,39.26168],[-76.6467,39.26522],[-76.64401,39.25971],[-76.63615,39.26035],[-76.63269,39.26072],[-76.63288,39.26509],[-76.63587,39.26496]]]]}},{"type":"Feature","properties":{"grade":"C"},"geometry":{"type":"MultiPolygon","coordinates":[[[[-76.58625,39.22506],[-76.59049,39.22793],[-76.59115,39.221],[-76.5889,39.22059],[-76.58625,39.22506]]],[[[-76.60119,39.23858],[-76.61151,39.23416],[-76.6173,39.23665],[-76.61534,39.22791],[-76.61334,39.22315],[-76.60393,39.23266],[-76.60119,39.23858]]]]}},{"type":"Feature","properties":{"grade":"C"},"geometry":{"type":"MultiPolygon","coordinates":[[[[-76.64429,39.33267],[-76.64602,39.3346],[-76.65301,39.33251],[-76.65493,39.33194],[-76.65371,39.3299],[-76.64429,39.33267]]],[[[-76.63513,39.34428],[-76.63831,39.34618],[-76.63952,39.34927],[-76.63988,39.34096],[-76.64065,39.32862],[-76.63328,39.32545],[-76.62951,39.32301],[-76.62607,39.32708],[-76.62788,39.33263],[-76.63138,39.33416],[-76.63468,39.34191],[-76.63513,39.34428]]]]}},{"type":"Feature","properties":{"grade":"C"},"geometry":{"type":"MultiPolygon","coordinates":[[[[-76.67668,39.26666],[-76.67504,39.26831],[-76.67652,39.27195],[-76.67705,39.27206],[-76.67891,39.27143],[-76.68036,39.26992],[-76.67947,39.26902],[-76.6783,39.26837],[-76.68166,39.26537],[-76.67994,39.26401],[-76.67668,39.26666]]],[[[-76.67261,39.29153],[-76.68861,39.28793],[-76.69407,39.28635],[-76.69726,39.28161],[-76.70168,39.27763],[-76.69607,39.27565],[-76.69502,39.2727],[-76.69474,39.26667],[-76.69707,39.26494],[-76.69203,39.2607],[-76.68827,39.26225],[-76.68228,39.2699],[-76.69284,39.27392],[-76.69027,39.27903],[-76.68362,39.27811],[-76.68076,39.28183],[-76.67416,39.28116],[-76.67287,39.2773],[-76.66455,39.27988],[-76.66817,39.28584],[-76.67261,39.29153]]]]}},{"type":"Feature","properties":{"grade":"C"},"geometry":{"type":"MultiPolygon","coordinates":[[[[-76.72544,39.29701],[-76.72455,39.3054],[-76.74184,39.31037],[-76.74811,39.30479],[-76.7428,39.30135],[-76.73599,39.29911],[-76.73014,39.29337],[-76.72455,39.29114],[-76.72544,39.29701]]]]}},{"type":"Feature","properties":{"grade":"C"},"geometry":{"type":"MultiPolygon","coordinates":[[[[-76.73129,39.28829],[-76.73389,39.28771],[-76.73607,39.28673],[-76.73795,39.28551],[-76.7384,39.28493],[-76.73857,39.28416],[-76.7391,39.28182],[-76.73958,39.27991],[-76.73923,39.27885],[-76.73801,39.27847],[-76.73615,39.27829],[-76.73477,39.27845],[-76.7337,39.27895],[-76.73038,39.28373],[-76.73102,39.28606],[-76.73129,39.28829]]]]}},{"type":"Feature","properties":{"grade":"C"},"geometry":{"type":"MultiPolygon","coordinates":[[[[-76.69378,39.26073],[-76.70124,39.25367],[-76.70819,39.24621],[-76.70276,39.24481],[-76.69712,39.24517],[-76.69652,39.24446],[-76.69644,39.24357],[-76.69321,39.24364],[-76.69346,39.2505],[-76.69395,39.25132],[-76.69061,39.25845],[-76.69378,39.26073]]]]}},{"type":"Feature","properties":{"grade":"C"},"geometry":{"type":"MultiPolygon","coordinates":[[[[-76.6748,39.23704],[-76.67917,39.24111],[-76.68692,39.24213],[-76.69081,39.23881],[-76.68875,39.23274],[-76.67863,39.2323],[-76.6748,39.23704]]]]}},{"type":"Feature","properties":{"grade":"C"},"geometry":{"type":"MultiPolygon","coordinates":[[[[-76.65484,39.24501],[-76.65959,39.25161],[-76.66239,39.25327],[-76.66547,39.24395],[-76.6547,39.2416],[-76.65484,39.24501]]]]}},{"type":"Feature","properties":{"grade":"C"},"geometry":{"type":"MultiPolygon","coordinates":[[[[-76.55539,39.28927],[-76.55875,39.28905],[-76.55842,39.28461],[-76.55446,39.28476],[-76.55432,39.28323],[-76.54834,39.28359],[-76.54878,39.28749],[-76.55524,39.2873],[-76.55539,39.28927]]],[[[-76.52624,39.26371],[-76.52624,39.27052],[-76.52718,39.27734],[-76.52158,39.28311],[-76.52991,39.28793],[-76.54541,39.29073],[-76.54722,39.28906],[-76.53603,39.28212],[-76.5379,39.27404],[-76.52887,39.26502],[-76.53294,39.26489],[-76.5224,39.25478],[-76.52624,39.26371]]]]}},{"type":"Feature","properties":{"grade":"C"},"geometry":{"type":"MultiPolygon","coordinates":[[[[-76.65115,39.2465],[-76.64655,39.24266],[-76.64403,39.24001],[-76.64157,39.23192],[-76.6322,39.23618],[-76.63743,39.24638],[-76.64518,39.24579],[-76.64738,39.24771],[-76.65115,39.2465]]]]}},{"type":"Feature","properties":{"grade":"C"},"geometry":{"type":"MultiPolygon","coordinates":[[[[-76.63682,39.22307],[-76.64155,39.22177],[-76.64728,39.22116],[-76.64303,39.21226],[-76.63555,39.21905],[-76.63682,39.22307]]]]}},{"type":"Feature","properties":{"grade":"C"},"geometry":{"type":"MultiPolygon","coordinates":[[[[-76.65529,39.19961],[-76.65626,39.19797],[-76.65486,39.1963],[-76.65307,39.18689],[-76.64848,39.18172],[-76.64747,39.1818],[-76.64396,39.18071],[-76.63527,39.17875],[-76.62782,39.18581],[-76.63254,39.19111],[-76.64139,39.19156],[-76.64158,39.1935],[-76.64145,39.19822],[-76.6533,39.19683],[-76.65529,39.19961]]],[[[-76.65362,39.20228],[-76.64164,39.20294],[-76.64245,39.20756],[-76.64898,39.20748],[-76.64968,39.20783],[-76.65067,39.20807],[-76.65203,39.20812],[-76.65283,39.2076],[-76.653,39.20678],[-76.6529,39.20537],[-76.65277,39.20428],[-76.65362,39.20228]]]]}},{"type":"Feature","properties":{"grade":"C"},"geometry":{"type":"MultiPolygon","coordinates":[[[[-76.58568,39.30378],[-76.5727,39.30976],[-76.59188,39.31555],[-76.60072,39.31792],[-76.60942,39.31244],[-76.595,39.30642],[-76.58568,39.30378]]]]}},{"type":"Feature","properties":{"grade":"C"},"geometry":{"type":"MultiPolygon","coordinates":[[[[-76.60917,39.31974],[-76.60937,39.32594],[-76.61111,39.32606],[-76.61232,39.32586],[-76.61595,39.3256],[-76.61577,39.32238],[-76.61997,39.32215],[-76.61981,39.3189],[-76.61948,39.31225],[-76.60942,39.31244],[-76.60942,39.31803],[-76.60912,39.31804],[-76.60917,39.31974]]]]}},{"type":"Feature","properties":{"grade":"C"},"geometry":{"type":"MultiPolygon","coordinates":[[[[-76.62233,39.3109],[-76.6301,39.31723],[-76.64193,39.31438],[-76.64525,39.31642],[-76.63703,39.31034],[-76.62184,39.30963],[-76.62233,39.3109]]]]}},{"type":"Feature","properties":{"grade":"C"},"geometry":{"type":"MultiPolygon","coordinates":[[[[-76.64417,39.31135],[-76.65411,39.31149],[-76.6604,39.30977],[-76.67269,39.30709],[-76.672,39.30305],[-76.66936,39.29908],[-76.66946,39.29472],[-76.66533,39.29209],[-76.65984,39.2926],[-76.65161,39.29478],[-76.64563,39.29542],[-76.64417,39.31135]]]]}},{"type":"Feature","properties":{"grade":"C"},"geometry":{"type":"MultiPolygon","coordinates":[[[[-76.6466,39.28048],[-76.6473,39.29537],[-76.6521,39.29413],[-76.66261,39.28779],[-76.65961,39.28505],[-76.66034,39.28062],[-76.6466,39.28048]]]]}},{"type":"Feature","properties":{"grade":"C"},"geometry":{"type":"MultiPolygon","coordinates":[[[[-76.68435,39.3422],[-76.66768,39.33453],[-76.65655,39.32875],[-76.65624,39.33717],[-76.65706,39.34231],[-76.65899,39.34687],[-76.66372,39.35183],[-76.67459,39.3501],[-76.68435,39.3422]]]]}},{"type":"Feature","properties":{"grade":"C"},"geometry":{"type":"MultiPolygon","coordinates":[[[[-76.60316,39.3284],[-76.60626,39.32679],[-76.60875,39.34536],[-76.61096,39.35669],[-76.61021,39.34381],[-76.6049,39.32515],[-76.59443,39.32569],[-76.59653,39.32817],[-76.60316,39.3284]]]]}},{"type":"Feature","properties":{"grade":"D"},"geometry":{"type":"MultiPolygon","coordinates":[[[[-76.74007,39.28522],[-76.74316,39.289],[-76.74551,39.2887],[-76.74938,39.28835],[-76.75303,39.28806],[-76.75328,39.28378],[-76.74972,39.28336],[-76.74633,39.28307],[-76.74382,39.28299],[-76.74453,39.28092],[-76.74047,39.2815],[-76.74007,39.28522]]]]}},{"type":"Feature","properties":{"grade":"D"},"geometry":{"type":"MultiPolygon","coordinates":[[[[-76.57499,39.24121],[-76.58301,39.23959],[-76.5827,39.23685],[-76.58241,39.236],[-76.57353,39.23805],[-76.57499,39.24121]]]]}},{"type":"Feature","properties":{"grade":"D"},"geometry":{"type":"MultiPolygon","coordinates":[[[[-76.58568,39.30378],[-76.60441,39.31159],[-76.60777,39.29578],[-76.60704,39.2921],[-76.60355,39.28692],[-76.59525,39.28527],[-76.58432,39.2861],[-76.58568,39.30378]]]]}},{"type":"Feature","properties":{"grade":"D"},"geometry":{"type":"MultiPolygon","coordinates":[[[[-76.54336,39.28164],[-76.55437,39.28095],[-76.55435,39.27911],[-76.54593,39.27942],[-76.54593,39.27599],[-76.54392,39.27598],[-76.5439,39.272],[-76.53836,39.27195],[-76.53859,39.27762],[-76.54147,39.27766],[-76.54257,39.27737],[-76.54328,39.27727],[-76.54336,39.28164]]],[[[-76.58423,39.28494],[-76.57823,39.28226],[-76.56659,39.27956],[-76.56223,39.28254],[-76.57227,39.29556],[-76.58432,39.2861],[-76.58423,39.28494]]]]}},{"type":"Feature","properties":{"grade":"D"},"geometry":{"type":"MultiPolygon","coordinates":[[[[-76.60837,39.30615],[-76.60928,39.31048],[-76.61815,39.31018],[-76.61652,39.3089],[-76.61435,39.30761],[-76.61272,39.30683],[-76.61088,39.30635],[-76.6094,39.30611],[-76.60837,39.30615]]],[[[-76.62102,39.30912],[-76.64049,39.3139],[-76.64563,39.29542],[-76.6377,39.28329],[-76.62724,39.2948],[-76.62018,39.30437],[-76.62048,39.3084],[-76.62102,39.30912]]]]}},{"type":"Feature","properties":{"grade":"D"},"geometry":{"type":"MultiPolygon","coordinates":[[[[-76.63004,39.28575],[-76.63427,39.28411],[-76.6382,39.27873],[-76.623,39.27642],[-76.61861,39.28133],[-76.60299,39.2698],[-76.59066,39.26814],[-76.60173,39.27338],[-76.6133,39.28139],[-76.63004,39.28575]]]]}},{"type":"Feature","properties":{"grade":"D"},"geometry":{"type":"MultiPolygon","coordinates":[[[[-76.61981,39.3189],[-76.61997,39.32215],[-76.62029,39.32246],[-76.62246,39.32459],[-76.6253,39.32323],[-76.62488,39.32252],[-76.62523,39.32201],[-76.62526,39.32144],[-76.62669,39.32013],[-76.62389,39.31689],[-76.61981,39.3189]]],[[[-76.60482,39.32411],[-76.6049,39.32515],[-76.60829,39.32625],[-76.61027,39.32766],[-76.61214,39.32899],[-76.61232,39.32586],[-76.61111,39.32606],[-76.60937,39.32594],[-76.60917,39.31974],[-76.60759,39.31991],[-76.60549,39.32167],[-76.60477,39.32355],[-76.60482,39.32411]]]]}},{"type":"Feature","properties":{"grade":"D"},"geometry":{"type":"MultiPolygon","coordinates":[[[[-76.61815,39.31018],[-76.62184,39.30963],[-76.62003,39.30681],[-76.62133,39.29685],[-76.60837,39.30615],[-76.61435,39.30761],[-76.61815,39.31018]]]]}},{"type":"Feature","properties":{"grade":"D"},"geometry":{"type":"MultiPolygon","coordinates":[[[[-76.60522,39.28755],[-76.6063,39.29109],[-76.60704,39.2921],[-76.6081,39.2927],[-76.60896,39.29322],[-76.60986,39.29433],[-76.60777,39.29578],[-76.62128,39.29511],[-76.62724,39.2948],[-76.62669,39.28588],[-76.61391,39.28644],[-76.6051,39.28681],[-76.60522,39.28755]]]]}},{"type":"Feature","properties":{"grade":null},"geometry":{"type":"MultiPolygon","coordinates":[[[[-76.57953,39.24948],[-76.58622,39.24341],[-76.60028,39.24203],[-76.58678,39.23158],[-76.58204,39.21624],[-76.5812,39.23086],[-76.57075,39.22802],[-76.56197,39.23074],[-76.57953,39.24948]],[[-76.57499,39.24121],[-76.57353,39.23805],[-76.58241,39.236],[-76.5827,39.23685],[-76.58301,39.23959],[-76.57499,39.24121]]],[[[-76.5656,39.30921],[-76.57254,39.29914],[-76.56714,39.2918],[-76.56499,39.28246],[-76.57687,39.27938],[-76.58097,39.28219],[-76.5869,39.28491],[-76.59934,39.28647],[-76.60522,39.28755],[-76.6133,39.28139],[-76.60173,39.27338],[-76.59066,39.26814],[-76.60299,39.2698],[-76.61861,39.28133],[-76.623,39.27642],[-76.6382,39.27873],[-76.65067,39.27527],[-76.64523,39.27],[-76.64235,39.26757],[-76.63288,39.26509],[-76.62889,39.26371],[-76.63174,39.26952],[-76.6207,39.27361],[-76.62053,39.26522],[-76.60742,39.26149],[-76.60186,39.2632],[-76.59788,39.26361],[-76.58484,39.26177],[-76.57915,39.26744],[-76.59258,39.27542],[-76.5969,39.27416],[-76.60362,39.27776],[-76.60961,39.2825],[-76.61158,39.2863],[-76.6034,39.28273],[-76.60052,39.27992],[-76.59199,39.28052],[-76.58789,39.28311],[-76.58004,39.2789],[-76.577,39.27719],[-76.57186,39.27498],[-76.57162,39.26268],[-76.55881,39.25755],[-76.55121,39.26079],[-76.53536,39.25514],[-76.54834,39.27081],[-76.55437,39.28095],[-76.55875,39.28905],[-76.55406,39.29437],[-76.55018,39.3009],[-76.5656,39.30921]]],[[[-76.62669,39.32013],[-76.62811,39.31935],[-76.6301,39.31723],[-76.62824,39.31529],[-76.62554,39.31207],[-76.62492,39.31085],[-76.62233,39.3109],[-76.61897,39.31111],[-76.61815,39.31018],[-76.60928,39.31048],[-76.60942,39.31139],[-76.60942,39.31244],[-76.61948,39.31225],[-76.61981,39.3189],[-76.62389,39.31689],[-76.62669,39.32013]]]]}}]}